start=new Date('2022-06-11T00:00:00.000Z').valueOf();
sats=[{"OBJECT_NAME":"STARLINK-1598","TLE_LINE1":"1 46160U 20057AV  22161.81324275  .00001430  00000-0  11487-3 0  9997","ECCENTRICITY":"0.00017230","COUNTRY_CODE":"US","OBJECT_TYPE":"PAYLOAD","NORAD_CAT_ID":"46160","BSTAR":"0.00011487000000","PERIOD":"95.592","LAUNCH_DATE":"2020-08-18","OBJECT_ID":"2020-057AV","MEAN_MOTION":"15.06404006","RA_OF_ASC_NODE":"317.2502","EPOCH":"2022-06-10T19:31:04.173600","DECAY_DATE":null,"REV_AT_EPOCH":"10142","CENTER_NAME":"EARTH","TIME_SYSTEM":"UTC","RCS_SIZE":"LARGE","GP_ID":"205861512","CLASSIFICATION_TYPE":"U","ARG_OF_PERICENTER":"57.1699","MEAN_MOTION_DDOT":"0.0000000000000","APOAPSIS":"548.395","MEAN_ANOMALY":"302.9456","SITE":"AFETR","ELEMENT_SET_NO":"999","FILE":"3490466","REF_FRAME":"TEME","PERIAPSIS":"546.008","MEAN_MOTION_DOT":"0.00001430","TLE_LINE2":"2 46160  53.0558 317.2502 0001723  57.1699 302.9456 15.06404006101428","SEMIMAJOR_AXIS":"6925.336","EPHEMERIS_TYPE":"0","MEAN_ELEMENT_THEORY":"SGP4","INCLINATION":"53.0558"},{"SITE":"AFETR","MEAN_ANOMALY":"274.9525","APOAPSIS":"548.119","MEAN_MOTION_DDOT":"0.0000000000000","ARG_OF_PERICENTER":"85.1611","CLASSIFICATION_TYPE":"U","GP_ID":"205860260","INCLINATION":"53.0557","MEAN_ELEMENT_THEORY":"SGP4","SEMIMAJOR_AXIS":"6925.360","EPHEMERIS_TYPE":"0","MEAN_MOTION_DOT":"0.00001307","TLE_LINE2":"2 46161  53.0557 317.0487 0001291  85.1611 274.9525 15.06396230101438","PERIAPSIS":"546.331","REF_FRAME":"TEME","ELEMENT_SET_NO":"999","FILE":"3490466","PERIOD":"95.592","LAUNCH_DATE":"2020-08-18","BSTAR":"0.00010660000000","NORAD_CAT_ID":"46161","OBJECT_TYPE":"PAYLOAD","COUNTRY_CODE":"US","OBJECT_NAME":"STARLINK-1600","TLE_LINE1":"1 46161U 20057AW  22161.85747992  .00001307  00000-0  10660-3 0  9992","ECCENTRICITY":"0.00012910","RCS_SIZE":"LARGE","REV_AT_EPOCH":"10143","TIME_SYSTEM":"UTC","CENTER_NAME":"EARTH","DECAY_DATE":null,"EPOCH":"2022-06-10T20:34:46.265088","RA_OF_ASC_NODE":"317.0487","MEAN_MOTION":"15.06396230","OBJECT_ID":"2020-057AW"},{"MEAN_ELEMENT_THEORY":"SGP4","INCLINATION":"53.0561","SEMIMAJOR_AXIS":"6925.373","EPHEMERIS_TYPE":"0","ELEMENT_SET_NO":"999","FILE":"3490466","MEAN_MOTION_DOT":"0.00000049","TLE_LINE2":"2 46162  53.0561 317.0503 0001434  75.6120 284.5028 15.06392092101449","REF_FRAME":"TEME","PERIAPSIS":"546.245","SITE":"AFETR","MEAN_ANOMALY":"284.5028","APOAPSIS":"548.231","MEAN_MOTION_DDOT":"0.0000000000000","CLASSIFICATION_TYPE":"U","GP_ID":"205860510","ARG_OF_PERICENTER":"75.6120","REV_AT_EPOCH":"10144","TIME_SYSTEM":"UTC","CENTER_NAME":"EARTH","DECAY_DATE":null,"EPOCH":"2022-06-10T20:40:05.042208","RCS_SIZE":"LARGE","MEAN_MOTION":"15.06392092","OBJECT_ID":"2020-057AX","RA_OF_ASC_NODE":"317.0503","NORAD_CAT_ID":"46162","PERIOD":"95.593","LAUNCH_DATE":"2020-08-18","BSTAR":"0.00002221800000","COUNTRY_CODE":"US","TLE_LINE1":"1 46162U 20057AX  22161.86116947  .00000049  00000-0  22218-4 0  9999","OBJECT_NAME":"STARLINK-1603","ECCENTRICITY":"0.00014340","OBJECT_TYPE":"PAYLOAD"},{"NORAD_CAT_ID":"46163","PERIOD":"95.592","LAUNCH_DATE":"2020-08-18","BSTAR":"0.00002918000000","COUNTRY_CODE":"US","TLE_LINE1":"1 46163U 20057AY  22161.85932263  .00000153  00000-0  29180-4 0  9997","ECCENTRICITY":"0.00015520","OBJECT_NAME":"STARLINK-1610","OBJECT_TYPE":"PAYLOAD","REV_AT_EPOCH":"10046","TIME_SYSTEM":"UTC","CENTER_NAME":"EARTH","EPOCH":"2022-06-10T20:37:25.475232","DECAY_DATE":null,"RCS_SIZE":"LARGE","MEAN_MOTION":"15.06395802","OBJECT_ID":"2020-057AY","RA_OF_ASC_NODE":"297.0371","MEAN_ANOMALY":"301.0275","SITE":"AFETR","APOAPSIS":"548.301","MEAN_MOTION_DDOT":"0.0000000000000","CLASSIFICATION_TYPE":"U","GP_ID":"205861761","ARG_OF_PERICENTER":"59.0866","INCLINATION":"53.0545","MEAN_ELEMENT_THEORY":"SGP4","SEMIMAJOR_AXIS":"6925.361","EPHEMERIS_TYPE":"0","ELEMENT_SET_NO":"999","FILE":"3490466","MEAN_MOTION_DOT":"0.00000153","TLE_LINE2":"2 46163  53.0545 297.0371 0001552  59.0866 301.0275 15.06395802100468","PERIAPSIS":"546.152","REF_FRAME":"TEME"},{"CLASSIFICATION_TYPE":"U","GP_ID":"205862012","ARG_OF_PERICENTER":"78.4753","SITE":"AFETR","MEAN_ANOMALY":"281.6389","APOAPSIS":"548.180","MEAN_MOTION_DDOT":"0.0000000000000","FILE":"3490466","ELEMENT_SET_NO":"999","TLE_LINE2":"2 46164  53.0551 297.3547 0001360  78.4753 281.6389 15.06391844101711","MEAN_MOTION_DOT":"-0.00000673","PERIAPSIS":"546.297","REF_FRAME":"TEME","INCLINATION":"53.0551","MEAN_ELEMENT_THEORY":"SGP4","EPHEMERIS_TYPE":"0","SEMIMAJOR_AXIS":"6925.374","COUNTRY_CODE":"US","TLE_LINE1":"1 46164U 20057AZ  22161.78929422 -.00000673  00000-0 -26331-4 0  9997","ECCENTRICITY":"0.00013600","OBJECT_NAME":"STARLINK-1612","OBJECT_TYPE":"PAYLOAD","NORAD_CAT_ID":"46164","LAUNCH_DATE":"2020-08-18","PERIOD":"95.593","BSTAR":"-0.00002633100000","MEAN_MOTION":"15.06391844","OBJECT_ID":"2020-057AZ","RA_OF_ASC_NODE":"297.3547","REV_AT_EPOCH":"10171","CENTER_NAME":"EARTH","TIME_SYSTEM":"UTC","EPOCH":"2022-06-10T18:56:35.020608","DECAY_DATE":null,"RCS_SIZE":"LARGE"},{"NORAD_CAT_ID":"46165","BSTAR":"0.00091759000000","LAUNCH_DATE":"2020-08-18","PERIOD":"95.203","TLE_LINE1":"1 46165U 20057BA  22161.75521075  .00015924  00000-0  91759-3 0  9995","ECCENTRICITY":"0.00019160","OBJECT_NAME":"STARLINK-1613","COUNTRY_CODE":"US","OBJECT_TYPE":"PAYLOAD","EPOCH":"2022-06-10T18:07:30.208800","DECAY_DATE":null,"REV_AT_EPOCH":"9993","CENTER_NAME":"EARTH","TIME_SYSTEM":"UTC","RCS_SIZE":"LARGE","OBJECT_ID":"2020-057BA","MEAN_MOTION":"15.12559893","RA_OF_ASC_NODE":"334.2402","MEAN_MOTION_DDOT":"0.0000000000000","APOAPSIS":"529.722","SITE":"AFETR","MEAN_ANOMALY":"215.4306","GP_ID":"205860760","CLASSIFICATION_TYPE":"U","ARG_OF_PERICENTER":"144.6813","EPHEMERIS_TYPE":"0","SEMIMAJOR_AXIS":"6906.533","INCLINATION":"53.0535","MEAN_ELEMENT_THEORY":"SGP4","FILE":"3490466","ELEMENT_SET_NO":"999","REF_FRAME":"TEME","PERIAPSIS":"527.075","TLE_LINE2":"2 46165  53.0535 334.2402 0001916 144.6813 215.4306 15.12559893 99936","MEAN_MOTION_DOT":"0.00015924"},{"RA_OF_ASC_NODE":"337.4270","OBJECT_ID":"2020-057BB","MEAN_MOTION":"15.06396510","RCS_SIZE":"LARGE","EPOCH":"2022-06-10T18:35:20.839200","DECAY_DATE":null,"TIME_SYSTEM":"UTC","REV_AT_EPOCH":"9989","CENTER_NAME":"EARTH","OBJECT_TYPE":"PAYLOAD","OBJECT_NAME":"STARLINK-1615","TLE_LINE1":"1 46166U 20057BB  22161.77454675 -.00000654  00000-0 -25011-4 0  9994","ECCENTRICITY":"0.00012060","COUNTRY_CODE":"US","BSTAR":"-0.00002501100000","PERIOD":"95.592","LAUNCH_DATE":"2020-08-18","NORAD_CAT_ID":"46166","REF_FRAME":"TEME","PERIAPSIS":"546.389","MEAN_MOTION_DOT":"-0.00000654","TLE_LINE2":"2 46166  53.0557 337.4270 0001206  75.2240 284.8882 15.06396510 99896","ELEMENT_SET_NO":"999","FILE":"3490466","SEMIMAJOR_AXIS":"6925.359","EPHEMERIS_TYPE":"0","MEAN_ELEMENT_THEORY":"SGP4","INCLINATION":"53.0557","ARG_OF_PERICENTER":"75.2240","GP_ID":"205861010","CLASSIFICATION_TYPE":"U","APOAPSIS":"548.059","MEAN_MOTION_DDOT":"0.0000000000000","SITE":"AFETR","MEAN_ANOMALY":"284.8882"},{"EPHEMERIS_TYPE":"0","SEMIMAJOR_AXIS":"6925.353","MEAN_ELEMENT_THEORY":"SGP4","INCLINATION":"53.0547","FILE":"3490466","ELEMENT_SET_NO":"999","PERIAPSIS":"546.229","REF_FRAME":"TEME","TLE_LINE2":"2 46167  53.0547 337.3652 0001428  65.7052 294.4086 15.06398653 99893","MEAN_MOTION_DOT":"0.00001712","MEAN_MOTION_DDOT":"0.0000000000000","APOAPSIS":"548.207","SITE":"AFETR","MEAN_ANOMALY":"294.4086","GP_ID":"205861262","CLASSIFICATION_TYPE":"U","ARG_OF_PERICENTER":"65.7052","EPOCH":"2022-06-10T18:56:34.362240","DECAY_DATE":null,"REV_AT_EPOCH":"9989","CENTER_NAME":"EARTH","TIME_SYSTEM":"UTC","RCS_SIZE":"LARGE","OBJECT_ID":"2020-057BC","MEAN_MOTION":"15.06398653","RA_OF_ASC_NODE":"337.3652","NORAD_CAT_ID":"46167","BSTAR":"0.00013380000000","LAUNCH_DATE":"2020-08-18","PERIOD":"95.592","TLE_LINE1":"1 46167U 20057BC  22161.78928660  .00001712  00000-0  13380-3 0  9995","OBJECT_NAME":"STARLINK-1626","ECCENTRICITY":"0.00014280","COUNTRY_CODE":"US","OBJECT_TYPE":"PAYLOAD"},{"GP_ID":"205861513","CLASSIFICATION_TYPE":"U","ARG_OF_PERICENTER":"67.2071","APOAPSIS":"548.315","MEAN_MOTION_DDOT":"0.0000000000000","MEAN_ANOMALY":"292.9079","SITE":"AFETR","FILE":"3490466","ELEMENT_SET_NO":"999","REF_FRAME":"TEME","PERIAPSIS":"546.207","TLE_LINE2":"2 46168  53.0552 287.8380 0001522  67.2071 292.9079 15.06384401100579","MEAN_MOTION_DOT":"0.00000515","EPHEMERIS_TYPE":"0","SEMIMAJOR_AXIS":"6925.396","INCLINATION":"53.0552","MEAN_ELEMENT_THEORY":"SGP4","TLE_LINE1":"1 46168U 20057BD  22161.70176824  .00000515  00000-0  53516-4 0  9991","ECCENTRICITY":"0.00015220","OBJECT_NAME":"STARLINK-1627","COUNTRY_CODE":"US","OBJECT_TYPE":"PAYLOAD","NORAD_CAT_ID":"46168","BSTAR":"0.00005351600000","LAUNCH_DATE":"2020-08-18","PERIOD":"95.593","OBJECT_ID":"2020-057BD","MEAN_MOTION":"15.06384401","RA_OF_ASC_NODE":"287.8380","DECAY_DATE":null,"EPOCH":"2022-06-10T16:50:32.775936","REV_AT_EPOCH":"10057","CENTER_NAME":"EARTH","TIME_SYSTEM":"UTC","RCS_SIZE":"LARGE"},{"RA_OF_ASC_NODE":"337.2879","OBJECT_ID":"2020-057BE","MEAN_MOTION":"15.05581532","RCS_SIZE":"LARGE","EPOCH":"2022-06-10T19:16:30.895968","DECAY_DATE":null,"REV_AT_EPOCH":"9985","TIME_SYSTEM":"UTC","CENTER_NAME":"EARTH","OBJECT_TYPE":"PAYLOAD","TLE_LINE1":"1 46169U 20057BE  22161.80313537  .00000265  00000-0  37365-4 0  9993","OBJECT_NAME":"STARLINK-1628","ECCENTRICITY":"0.00010410","COUNTRY_CODE":"US","BSTAR":"0.00003736500000","PERIOD":"95.644","LAUNCH_DATE":"2020-08-18","NORAD_CAT_ID":"46169","PERIAPSIS":"549.002","REF_FRAME":"TEME","MEAN_MOTION_DOT":"0.00000265","TLE_LINE2":"2 46169  53.0017 337.2879 0001041  71.5948 288.5153 15.05581532 99851","ELEMENT_SET_NO":"999","FILE":"3490466","SEMIMAJOR_AXIS":"6927.858","EPHEMERIS_TYPE":"0","MEAN_ELEMENT_THEORY":"SGP4","INCLINATION":"53.0017","ARG_OF_PERICENTER":"71.5948","GP_ID":"205860261","CLASSIFICATION_TYPE":"U","APOAPSIS":"550.444","MEAN_MOTION_DDOT":"0.0000000000000","SITE":"AFETR","MEAN_ANOMALY":"288.5153"}];
